{
  "type": "FeatureCollection",
  "generated_at": "2026-09-13T18:10:33.709Z",
  "source": "github-actions-placeholder",
  "notes": "Replace this placeholder generator with real scene fetch + OlmoEarth inference.",
  "features": [
    {
      "type": "Feature",
      "properties": {
        "id": "sample-burn-zone-leavenworth",
        "name": "Sample burn zone near Leavenworth",
        "severity": "moderate",
        "score": 0.81,
        "observed_at": "2026-09-13T18:10:33.709Z"
      },
      "geometry": {
        "type": "Polygon",
        "coordinates": [
          [
            [
              -120.742,
              47.629
            ],
            [
              -120.704,
              47.629
            ],
            [
              -120.704,
              47.603
            ],
            [
              -120.742,
              47.603
            ],
            [
              -120.742,
              47.629
            ]
          ]
        ]
      }
    }
  ]
}
